start=new Date('2022-06-16T00:00:00.000Z').valueOf();
sats=[{"MEAN_ELEMENT_THEORY":"SGP4","INCLINATION":"53.0550","BSTAR":"-0.00007607200000","LAUNCH_DATE":"2020-06-04","DECAY_DATE":null,"OBJECT_NAME":"STARLINK-1410","CENTER_NAME":"EARTH","REF_FRAME":"TEME","ARG_OF_PERICENTER":"62.5521","CLASSIFICATION_TYPE":"U","RA_OF_ASC_NODE":"64.5346","PERIAPSIS":"545.898","PERIOD":"95.592","OBJECT_TYPE":"PAYLOAD","ECCENTRICITY":"0.00019170","EPOCH":"2022-06-15T20:57:17.574048","REV_AT_EPOCH":"11331","OBJECT_ID":"2020-035BA","FILE":"3496999","TLE_LINE1":"1 45705U 20035BA  22166.87312007 -.00001414  00000-0 -76072-4 0  9994","RCS_SIZE":"LARGE","MEAN_MOTION_DDOT":"0.0000000000000","COUNTRY_CODE":"US","MEAN_ANOMALY":"297.5662","MEAN_MOTION":"15.06395922","APOAPSIS":"548.554","MEAN_MOTION_DOT":"-0.00001414","EPHEMERIS_TYPE":"0","SEMIMAJOR_AXIS":"6925.361","TLE_LINE2":"2 45705  53.0550  64.5346 0001917  62.5521 297.5662 15.06395922113316","TIME_SYSTEM":"UTC","SITE":"AFETR","NORAD_CAT_ID":"45705","GP_ID":"206234697","ELEMENT_SET_NO":"999"},{"SITE":"AFETR","NORAD_CAT_ID":"45706","ELEMENT_SET_NO":"999","GP_ID":"206234947","SEMIMAJOR_AXIS":"6925.346","EPHEMERIS_TYPE":"0","TIME_SYSTEM":"UTC","TLE_LINE2":"2 45706  53.0560  34.5688 0001715  64.3360 295.7806 15.06400812113732","RCS_SIZE":"LARGE","TLE_LINE1":"1 45706U 20035BB  22166.86481984  .00000376  00000-0  44168-4 0  9990","APOAPSIS":"548.399","MEAN_MOTION_DOT":"0.00000376","MEAN_MOTION":"15.06400812","COUNTRY_CODE":"US","MEAN_ANOMALY":"295.7806","MEAN_MOTION_DDOT":"0.0000000000000","PERIOD":"95.592","OBJECT_ID":"2020-035BB","FILE":"3496999","EPOCH":"2022-06-15T20:45:20.434176","REV_AT_EPOCH":"11373","OBJECT_TYPE":"PAYLOAD","ECCENTRICITY":"0.00017150","PERIAPSIS":"546.023","ARG_OF_PERICENTER":"64.3360","REF_FRAME":"TEME","CENTER_NAME":"EARTH","OBJECT_NAME":"STARLINK-1411","RA_OF_ASC_NODE":"34.5688","CLASSIFICATION_TYPE":"U","INCLINATION":"53.0560","MEAN_ELEMENT_THEORY":"SGP4","DECAY_DATE":null,"BSTAR":"0.00004416800000","LAUNCH_DATE":"2020-06-04"},{"DECAY_DATE":null,"BSTAR":"-0.00009509700000","LAUNCH_DATE":"2020-06-04","INCLINATION":"53.0564","MEAN_ELEMENT_THEORY":"SGP4","RA_OF_ASC_NODE":"34.8977","CLASSIFICATION_TYPE":"U","REF_FRAME":"TEME","ARG_OF_PERICENTER":"64.8449","OBJECT_NAME":"STARLINK-1412","CENTER_NAME":"EARTH","PERIAPSIS":"546.163","EPOCH":"2022-06-15T19:04:30.681984","REV_AT_EPOCH":"11332","OBJECT_ID":"2020-035BC","FILE":"3496909","ECCENTRICITY":"0.00015650","OBJECT_TYPE":"PAYLOAD","PERIOD":"95.593","MEAN_MOTION":"15.06389208","APOAPSIS":"548.330","MEAN_MOTION_DOT":"-0.00001697","MEAN_MOTION_DDOT":"0.0000000000000","COUNTRY_CODE":"US","MEAN_ANOMALY":"295.2702","RCS_SIZE":"LARGE","TLE_LINE1":"1 45707U 20035BC  22166.79479956 -.00001697  00000-0 -95097-4 0  9995","TLE_LINE2":"2 45707  53.0564  34.8977 0001565  64.8449 295.2702 15.06389208113327","TIME_SYSTEM":"UTC","SEMIMAJOR_AXIS":"6925.382","EPHEMERIS_TYPE":"0","ELEMENT_SET_NO":"999","GP_ID":"206213482","NORAD_CAT_ID":"45707","SITE":"AFETR"},{"TLE_LINE1":"1 45708U 20035BD  22166.90168919 -.00000328  00000-0 -31383-5 0  9992","RCS_SIZE":"LARGE","COUNTRY_CODE":"US","MEAN_ANOMALY":"286.6134","MEAN_MOTION_DDOT":"0.0000000000000","APOAPSIS":"548.369","MEAN_MOTION_DOT":"-0.00000328","MEAN_MOTION":"15.06397501","EPHEMERIS_TYPE":"0","SEMIMAJOR_AXIS":"6925.356","TLE_LINE2":"2 45708  53.0551  34.3983 0001658  73.5037 286.6134 15.06397501113754","TIME_SYSTEM":"UTC","SITE":"AFETR","NORAD_CAT_ID":"45708","GP_ID":"206235450","ELEMENT_SET_NO":"999","MEAN_ELEMENT_THEORY":"SGP4","INCLINATION":"53.0551","BSTAR":"-0.00000313830000","LAUNCH_DATE":"2020-06-04","DECAY_DATE":null,"CENTER_NAME":"EARTH","OBJECT_NAME":"STARLINK-1418","ARG_OF_PERICENTER":"73.5037","REF_FRAME":"TEME","CLASSIFICATION_TYPE":"U","RA_OF_ASC_NODE":"34.3983","PERIAPSIS":"546.073","PERIOD":"95.592","ECCENTRICITY":"0.00016580","OBJECT_TYPE":"PAYLOAD","OBJECT_ID":"2020-035BD","FILE":"3496999","REV_AT_EPOCH":"11375","EPOCH":"2022-06-15T21:38:25.946016"},{"LAUNCH_DATE":"2020-06-04","BSTAR":"-0.00006093100000","DECAY_DATE":null,"MEAN_ELEMENT_THEORY":"SGP4","INCLINATION":"53.0564","CLASSIFICATION_TYPE":"U","RA_OF_ASC_NODE":"34.5577","CENTER_NAME":"EARTH","OBJECT_NAME":"STARLINK-1421","ARG_OF_PERICENTER":"74.7586","REF_FRAME":"TEME","PERIAPSIS":"546.035","OBJECT_TYPE":"PAYLOAD","ECCENTRICITY":"0.00017290","OBJECT_ID":"2020-035BE","FILE":"3496999","REV_AT_EPOCH":"11370","EPOCH":"2022-06-15T20:55:58.376352","PERIOD":"95.593","MEAN_ANOMALY":"285.3594","COUNTRY_CODE":"US","MEAN_MOTION_DDOT":"0.0000000000000","MEAN_MOTION_DOT":"-0.00001189","APOAPSIS":"548.430","MEAN_MOTION":"15.06393882","TLE_LINE1":"1 45709U 20035BE  22166.87220343 -.00001189  00000-0 -60931-4 0  9995","RCS_SIZE":"LARGE","TLE_LINE2":"2 45709  53.0564  34.5577 0001729  74.7586 285.3594 15.06393882113700","TIME_SYSTEM":"UTC","EPHEMERIS_TYPE":"0","SEMIMAJOR_AXIS":"6925.367","GP_ID":"206234198","ELEMENT_SET_NO":"999","NORAD_CAT_ID":"45709","SITE":"AFETR"},{"ELEMENT_SET_NO":"999","GP_ID":"206234448","SITE":"AFETR","NORAD_CAT_ID":"45710","TLE_LINE2":"2 45710  53.0567  34.5664 0001691  62.9846 297.1316 15.06400056113747","TIME_SYSTEM":"UTC","SEMIMAJOR_AXIS":"6925.348","EPHEMERIS_TYPE":"0","APOAPSIS":"548.384","MEAN_MOTION_DOT":"-0.00000975","MEAN_MOTION":"15.06400056","MEAN_ANOMALY":"297.1316","COUNTRY_CODE":"US","MEAN_MOTION_DDOT":"0.0000000000000","RCS_SIZE":"LARGE","TLE_LINE1":"1 45710U 20035BF  22166.86851336 -.00000975  00000-0 -46539-4 0  9998","FILE":"3496999","OBJECT_ID":"2020-035BF","EPOCH":"2022-06-15T20:50:39.554304","REV_AT_EPOCH":"11374","OBJECT_TYPE":"PAYLOAD","ECCENTRICITY":"0.00016910","PERIOD":"95.592","PERIAPSIS":"546.042","RA_OF_ASC_NODE":"34.5664","CLASSIFICATION_TYPE":"U","ARG_OF_PERICENTER":"62.9846","REF_FRAME":"TEME","CENTER_NAME":"EARTH","OBJECT_NAME":"STARLINK-1423","DECAY_DATE":null,"BSTAR":"-0.00004653900000","LAUNCH_DATE":"2020-06-04","INCLINATION":"53.0567","MEAN_ELEMENT_THEORY":"SGP4"},{"MEAN_ELEMENT_THEORY":"SGP4","INCLINATION":"53.0558","BSTAR":"-0.00006920000000","LAUNCH_DATE":"2020-06-04","DECAY_DATE":null,"CENTER_NAME":"EARTH","OBJECT_NAME":"STARLINK-1433","ARG_OF_PERICENTER":"63.5663","REF_FRAME":"TEME","CLASSIFICATION_TYPE":"U","RA_OF_ASC_NODE":"34.6428","PERIAPSIS":"545.994","PERIOD":"95.592","OBJECT_TYPE":"PAYLOAD","ECCENTRICITY":"0.00017780","FILE":"3496999","OBJECT_ID":"2020-035BG","EPOCH":"2022-06-15T20:24:07.325856","REV_AT_EPOCH":"11373","TLE_LINE1":"1 45711U 20035BG  22166.85008479 -.00001312  00000-0 -69200-4 0  9996","RCS_SIZE":"LARGE","COUNTRY_CODE":"US","MEAN_ANOMALY":"296.5509","MEAN_MOTION_DDOT":"0.0000000000000","APOAPSIS":"548.457","MEAN_MOTION_DOT":"-0.00001312","MEAN_MOTION":"15.06395997","EPHEMERIS_TYPE":"0","SEMIMAJOR_AXIS":"6925.361","TIME_SYSTEM":"UTC","TLE_LINE2":"2 45711  53.0558  34.6428 0001778  63.5663 296.5509 15.06395997113730","NORAD_CAT_ID":"45711","SITE":"AFETR","GP_ID":"206235699","ELEMENT_SET_NO":"999"},{"REV_AT_EPOCH":"11333","EPOCH":"2022-06-15T20:18:49.001472","FILE":"3496912","OBJECT_ID":"2020-035BH","OBJECT_TYPE":"PAYLOAD","ECCENTRICITY":"0.00015910","PERIOD":"95.592","PERIAPSIS":"546.127","RA_OF_ASC_NODE":"34.6720","CLASSIFICATION_TYPE":"U","REF_FRAME":"TEME","ARG_OF_PERICENTER":"70.3033","OBJECT_NAME":"STARLINK-1434","CENTER_NAME":"EARTH","DECAY_DATE":null,"LAUNCH_DATE":"2020-06-04","BSTAR":"-0.00004649500000","INCLINATION":"53.0564","MEAN_ELEMENT_THEORY":"SGP4","ELEMENT_SET_NO":"999","GP_ID":"206214033","SITE":"AFETR","NORAD_CAT_ID":"45712","TLE_LINE2":"2 45712  53.0564  34.6720 0001591  70.3033 289.8128 15.06395160113333","TIME_SYSTEM":"UTC","SEMIMAJOR_AXIS":"6925.363","EPHEMERIS_TYPE":"0","MEAN_MOTION":"15.06395160","APOAPSIS":"548.330","MEAN_MOTION_DOT":"-0.00000974","MEAN_MOTION_DDOT":"0.0000000000000","MEAN_ANOMALY":"289.8128","COUNTRY_CODE":"US","RCS_SIZE":"LARGE","TLE_LINE1":"1 45712U 20035BH  22166.84640048 -.00000974  00000-0 -46495-4 0  9994"},{"MEAN_MOTION_DOT":"-0.00000642","APOAPSIS":"548.350","MEAN_MOTION":"15.06394581","COUNTRY_CODE":"US","MEAN_ANOMALY":"290.6356","MEAN_MOTION_DDOT":"0.0000000000000","RCS_SIZE":"LARGE","TLE_LINE1":"1 45713U 20035BJ  22166.86667547 -.00000642  00000-0 -24210-4 0  9993","ELEMENT_SET_NO":"999","GP_ID":"206234698","NORAD_CAT_ID":"45713","SITE":"AFETR","TIME_SYSTEM":"UTC","TLE_LINE2":"2 45713  53.0555  54.5586 0001617  69.4807 290.6356 15.06394581113454","SEMIMAJOR_AXIS":"6925.365","EPHEMERIS_TYPE":"0","RA_OF_ASC_NODE":"54.5586","CLASSIFICATION_TYPE":"U","ARG_OF_PERICENTER":"69.4807","REF_FRAME":"TEME","CENTER_NAME":"EARTH","OBJECT_NAME":"STARLINK-1436","DECAY_DATE":null,"BSTAR":"-0.00002421000000","LAUNCH_DATE":"2020-06-04","INCLINATION":"53.0555","MEAN_ELEMENT_THEORY":"SGP4","FILE":"3496999","OBJECT_ID":"2020-035BJ","REV_AT_EPOCH":"11345","EPOCH":"2022-06-15T20:48:00.760608","ECCENTRICITY":"0.00016170","OBJECT_TYPE":"PAYLOAD","PERIOD":"95.592","PERIAPSIS":"546.110"},{"REF_FRAME":"TEME","ARG_OF_PERICENTER":"58.6585","OBJECT_NAME":"STARLINK-1437","CENTER_NAME":"EARTH","RA_OF_ASC_NODE":"34.9095","CLASSIFICATION_TYPE":"U","INCLINATION":"53.0557","MEAN_ELEMENT_THEORY":"SGP4","DECAY_DATE":null,"BSTAR":"-0.00002999400000","LAUNCH_DATE":"2020-06-04","PERIOD":"95.593","REV_AT_EPOCH":"11373","EPOCH":"2022-06-15T18:59:12.141600","FILE":"3496999","OBJECT_ID":"2020-035BK","OBJECT_TYPE":"PAYLOAD","ECCENTRICITY":"0.00016250","PERIAPSIS":"546.113","RCS_SIZE":"LARGE","TLE_LINE1":"1 45714U 20035BK  22166.79111275 -.00000728  00000-0 -29994-4 0  9997","MEAN_MOTION":"15.06391862","MEAN_MOTION_DOT":"-0.00000728","APOAPSIS":"548.364","MEAN_MOTION_DDOT":"0.0000000000000","MEAN_ANOMALY":"301.4563","COUNTRY_CODE":"US","NORAD_CAT_ID":"45714","SITE":"AFETR","ELEMENT_SET_NO":"999","GP_ID":"206234948","SEMIMAJOR_AXIS":"6925.373","EPHEMERIS_TYPE":"0","TLE_LINE2":"2 45714  53.0557  34.9095 0001625  58.6585 301.4563 15.06391862113737","TIME_SYSTEM":"UTC"}];
